H1 CPF 01  gfz 2022 11 30 13  8342 terrasarx 
H2 0702601  6201 31698    2022 11 30 12 59 42 2022 12 05 00 00 42   120 1 1  0 0 0
H9
10 0 59914  76302.000000  0      29156.614  -1338898.141   6746306.172
10 0 59914  76422.000000  0    -597867.257   -669026.838   6818988.791
10 0 59914  76542.000000  0   -1202539.971     23294.777   6771863.190
10 0 59914  76662.000000  0   -1774029.282    725502.199   6605750.514
10 0 59914  76782.000000  0   -2302300.002   1424673.347   6323549.018
10 0 59914  76902.000000  0   -2778290.684   2107765.364   5930186.720
10 0 59914  77022.000000  0   -3194070.509   2761857.809   5432541.101
10 0 59914  77142.000000  0   -3542974.832   3374398.824   4839325.403
10 0 59914  77262.000000  0   -3819716.406   3933448.895   4160941.847
10 0 59914  77382.000000  0   -4020469.514   4427918.520   3409303.838
10 0 59914  77502.000000  0   -4142925.102   4847794.325   2597628.666
10 0 59914  77622.000000  0   -4186314.884   5184347.272   1740203.119
10 0 59914  77742.000000  0   -4151403.749   5430317.783    852128.205
10 0 59914  77862.000000  0   -4040451.865   5580073.948    -50952.443
10 0 59914  77982.000000  0   -3857146.178   5629739.197   -953136.969
10 0 59914  78102.000000  0   -3606501.356   5577283.564  -1838556.094
10 0 59914  78222.000000  0   -3294733.734   5422576.022  -2691661.212
10 0 59914  78342.000000  0   -2929111.691   5167399.406  -3497503.117
10 0 59914  78462.000000  0   -2517788.477   4815425.530  -4241996.625
10 0 59914  78582.000000  0   -2069620.714   4372153.513  -4912164.917
10 0 59914  78702.000000  0   -1593977.932   3844814.532  -5496358.904
10 0 59914  78822.000000  0   -1100547.999   3242246.189  -5984451.850
10 0 59914  78942.000000  0    -599141.083   2574736.752  -6368005.715
10 0 59914  79062.000000  0     -99496.789   1853844.133  -6640405.150
10 0 59914  79182.000000  0     388900.690   1092194.746  -6796960.480
10 0 59914  79302.000000  0     856997.894    303264.417  -6834980.512
10 0 59914  79422.000000  0    1296336.322   -498855.902  -6753813.931
10 0 59914  79542.000000  0    1699201.175  -1299706.610  -6554857.721
10 0 59914  79662.000000  0    2058753.396  -2084712.912  -6241535.367
10 0 59914  79782.000000  0    2369144.594  -2839443.412  -5819244.875
10 0 59914  79902.000000  0    2625612.541  -3549872.102  -5295277.173
10 0 59914  80022.000000  0    2824556.431  -4202640.457  -4678700.614
10 0 59914  80142.000000  0    2963588.195  -4785309.808  -3980213.098
10 0 59914  80262.000000  0    3041560.394  -5286602.380  -3211967.624
10 0 59914  80382.000000  0    3058570.087  -5696628.633  -2387369.210
10 0 59914  80502.000000  0    3015937.458  -6007091.581  -1520844.503
10 0 59914  80622.000000  0    2916159.676  -6211464.023   -627589.407
10 0 59914  80742.000000  0    2762839.131  -6305133.493    276702.252
10 0 59914  80862.000000  0    2560588.143  -6285508.629   1176121.096
10 0 59914  80982.000000  0    2314913.339  -6152087.427   2054830.432
10 0 59914  81102.000000  0    2032081.130  -5906481.606   2897355.552
10 0 59914  81222.000000  0    1718968.592  -5552397.156   3688863.574
10 0 59914  81342.000000  0    1382903.510  -5095574.213   4415429.513
10 0 59914  81462.000000  0    1031498.450  -4543687.157   5064283.772
10 0 59914  81582.000000  0     672482.348  -3906208.046   5624037.873
10 0 59914  81702.000000  0     313532.697  -3194233.569   6084882.360
10 0 59914  81822.000000  0     -37886.044  -2420282.864   6438752.267
10 0 59914  81942.000000  0    -374675.132  -1598072.287   6679461.161
10 0 59914  82062.000000  0    -690242.588   -742270.101   6802803.777
10 0 59914  82182.000000  0    -978630.722    131766.723   6806626.041
10 0 59914  82302.000000  0   -1234627.858   1008268.528   6690860.330
10 0 59914  82422.000000  0   -1453862.082   1871336.901   6457526.228
10 0 59914  82542.000000  0   -1632876.021   2705232.302   6110697.682
10 0 59914  82662.000000  0   -1769181.810   3494661.588   5656436.115
10 0 59914  82782.000000  0   -1861294.684   4225060.388   5102690.185
10 0 59914  82902.000000  0   -1908745.460   4882866.886   4459163.782
10 0 59914  83022.000000  0   -1912071.178   5455781.129   3737150.780
10 0 59914  83142.000000  0   -1872783.761   5933003.884   2949339.768
10 0 59914  83262.000000  0   -1793318.122   6305449.033   2109591.065
10 0 59914  83382.000000  0   -1676959.544   6565925.647   1232690.158
10 0 59914  83502.000000  0   -1527751.547   6709283.859    334081.806
10 0 59914  83622.000000  0   -1350387.627   6732521.006   -570408.983
10 0 59914  83742.000000  0   -1150089.375   6634846.455  -1464865.180
10 0 59914  83862.000000  0    -932472.713   6417698.464  -2333569.434
10 0 59914  83982.000000  0    -703408.148   6084713.808  -3161286.853
10 0 59914  84102.000000  0    -468878.193   5641656.115  -3933534.317
10 0 59914  84222.000000  0    -234835.021   5096304.881  -4636833.932
10 0 59914  84342.000000  0      -7061.937   4458306.579  -5258944.841
10 0 59914  84462.000000  0     208958.651   3738993.193  -5789069.766
10 0 59914  84582.000000  0     408167.499   2951171.244  -6218033.514
10 0 59914  84702.000000  0     586037.926   2108887.041  -6538430.303
10 0 59914  84822.000000  0     738671.207   1227174.583  -6744740.007
10 0 59914  84942.000000  0     862876.362    321788.979  -6833413.899
10 0 59914  85062.000000  0     956232.929   -591070.685  -6802929.129
10 0 59914  85182.000000  0    1017135.928  -1495045.353  -6653810.883
10 0 59914  85302.000000  0    1044822.644  -2373900.761  -6388622.941
10 0 59914  85422.000000  0    1039381.670  -3211811.209  -6011930.031
10 0 59914  85542.000000  0    1001742.844  -3993642.099  -5530229.203
10 0 59914  85662.000000  0     933648.286  -4705223.224  -4951847.012
10 0 59914  85782.000000  0     837606.125  -5333607.985  -4286807.089
10 0 59914  85902.000000  0     716826.019  -5867316.399  -3546667.462
10 0 59914  86022.000000  0     575138.030  -6296554.850  -2744327.760
10 0 59914  86142.000000  0     416896.704  -6613407.770  -1893810.193
10 0 59914  86262.000000  0     246872.079  -6811997.051  -1010015.913
10 0 59914  86382.000000  0      70129.729  -6888602.467   -108460.971
10 0 59915    102.000000  0    -108097.046  -6841740.043    795001.408
10 0 59915    222.000000  0    -282539.525  -6672196.985   1684466.822
10 0 59915    342.000000  0    -448027.220  -6383021.226   2544269.075
10 0 59915    462.000000  0    -599619.181  -5979464.318   3359266.108
10 0 59915    582.000000  0    -732728.859  -5468877.678   4115113.898
10 0 59915    702.000000  0    -843240.809  -4860570.089   4798521.837
10 0 59915    822.000000  0    -927615.478  -4165628.399   5397487.606
10 0 59915    942.000000  0    -982979.551  -3396706.135   5901507.167
10 0 59915   1062.000000  0   -1007200.520  -2567782.676   6301755.530
10 0 59915   1182.000000  0    -998942.974  -1693901.881   6591233.413
10 0 59915   1302.000000  0    -957706.596   -790896.583   6764883.331
10 0 59915   1422.000000  0    -883846.134    124900.090   6819673.571
10 0 59915   1542.000000  0    -778571.771   1036950.301   6754647.791
10 0 59915   1662.000000  0    -643928.945   1928809.732   6570940.901
10 0 59915   1782.000000  0    -482758.812   2784423.608   6271760.355
10 0 59915   1902.000000  0    -298640.253   3588415.830   5862333.739
10 0 59915   2022.000000  0     -95814.660   4326367.758   5349822.556
10 0 59915   2142.000000  0     120905.999   4985080.848   4743203.063
10 0 59915   2262.000000  0     346246.332   5552820.995   4053114.983
10 0 59915   2382.000000  0     574586.962   6019534.100   3291677.174
10 0 59915   2502.000000  0     800094.049   6377035.569   2472281.682
10 0 59915   2622.000000  0    1016858.507   6619167.609   1609352.824
10 0 59915   2742.000000  0    1219037.446   6741910.814    718087.777
10 0 59915   2862.000000  0    1400996.640   6743455.227   -185818.513
10 0 59915   2982.000000  0    1557449.894   6624226.649  -1086457.930
10 0 59915   3102.000000  0    1683590.999   6386868.218  -1967997.074
10 0 59915   3222.000000  0    1775215.811   6036178.681  -2814962.667
10 0 59915   3342.000000  0    1828831.241   5579008.199  -3612518.832
10 0 59915   3462.000000  0    1841748.572   5024114.133  -4346729.936
10 0 59915   3582.000000  0    1812158.870   4381980.906  -5004802.662
10 0 59915   3702.000000  0    1739188.713   3664610.708  -5575302.815
10 0 59915   3822.000000  0    1622936.212   2885290.793  -6048345.581
10 0 59915   3942.000000  0    1464485.628   2058340.796  -6415756.257
10 0 59915   4062.000000  0    1265901.683   1198847.680  -6671199.261
10 0 59915   4182.000000  0    1030204.247    322392.513  -6810277.638
10 0 59915   4302.000000  0     761322.474   -555228.151  -6830600.771
10 0 59915   4422.000000  0     464029.763  -1418281.273  -6731819.801
10 0 59915   4542.000000  0     143861.139  -2251371.300  -6515631.639
10 0 59915   4662.000000  0    -192986.242  -3039707.394  -6185754.722
10 0 59915   4782.000000  0    -539769.550  -3769363.294  -5747872.584
10 0 59915   4902.000000  0    -889330.084  -4427521.856  -5209545.092
10 0 59915   5022.000000  0   -1234235.621  -5002703.032  -4580089.951
10 0 59915   5142.000000  0   -1566933.552  -5484970.967  -3870432.616
10 0 59915   5262.000000  0   -1879911.410  -5866115.034  -3092925.939
10 0 59915   5382.000000  0   -2165861.245  -6139800.592  -2261142.102
10 0 59915   5502.000000  0   -2417844.501  -6301686.376  -1389639.423
10 0 59915   5622.000000  0   -2629453.281  -6349504.779   -493706.763
10 0 59915   5742.000000  0   -2794963.893  -6283100.976    410909.743
10 0 59915   5862.000000  0   -2909478.149  -6104429.035   1308290.864
10 0 59915   5982.000000  0   -2969048.813  -5817505.570   2182633.352
10 0 59915   6102.000000  0   -2970785.759  -5428321.181   3018537.387
10 0 59915   6222.000000  0   -2912939.846  -4944712.623   3801285.399
10 0 59915   6342.000000  0   -2794962.604  -4376199.416   4517106.491
99
